{
  "type": "FeatureCollection",
  "features": [
    {
      "type": "Feature",
      "properties": {
        "norad_id": 37836,
        "name": "EUTELSAT 16A",
        "group": "eutelsat",
        "lat": -0.042701971780376,
        "lon": -169.5361888538899,
        "alt_km": 35782.059642627966,
        "timestamp": "2025-12-20T05:41:49.689565+00:00",
        "meta_object_name": "EUTELSAT 16A",
        "meta_object_id": "2011-057A",
        "meta_epoch": "2025-12-19T20:11:12.137280",
        "meta_mean_motion": 1.00269122,
        "meta_eccentricity": 0.00058956,
        "meta_inclination": 0.0603,
        "meta_ra_of_asc_node": 336.379,
        "meta_arg_of_pericenter": 293.2136,
        "meta_mean_anomaly": 137.9047,
        "meta_ephemeris_type": 0,
        "meta_classification_type": "U",
        "meta_norad_cat_id": 37836,
        "meta_element_set_no": 999,
        "meta_rev_at_epoch": 552,
        "meta_bstar": 0,
        "meta_mean_motion_dot": 1.28e-06,
        "meta_mean_motion_ddot": 0,
        "tle_line1": "1 37836U 11057A   25353.84111270  .00000128  00000+0  00000+0 0  9992",
        "tle_line2": "2 37836   0.0603 336.3790 0005895 293.2136 137.9047  1.00269122  5528"
      },
      "geometry": {
        "type": "Point",
        "coordinates": [
          -169.5361888538899,
          -0.042701971780376
        ]
      }
    },
    {
      "type": "Feature",
      "properties": {
        "norad_id": 38992,
        "name": "EUTELSAT 21B",
        "group": "eutelsat",
        "lat": -0.05338473023630541,
        "lon": -163.91018189634022,
        "alt_km": 35783.54696418134,
        "timestamp": "2025-12-20T05:41:49.689577+00:00",
        "meta_object_name": "EUTELSAT 21B",
        "meta_object_id": "2012-062B",
        "meta_epoch": "2025-12-19T19:52:38.508672",
        "meta_mean_motion": 1.00268738,
        "meta_eccentricity": 0.0003274,
        "meta_inclination": 0.0695,
        "meta_ra_of_asc_node": 338.658,
        "meta_arg_of_pericenter": 293.5302,
        "meta_mean_anomaly": 136.2529,
        "meta_ephemeris_type": 0,
        "meta_classification_type": "U",
        "meta_norad_cat_id": 38992,
        "meta_element_set_no": 999,
        "meta_rev_at_epoch": 4802,
        "meta_bstar": 0,
        "meta_mean_motion_dot": 1.54e-06,
        "meta_mean_motion_ddot": 0,
        "tle_line1": "1 38992U 12062B   25353.82822348  .00000154  00000+0  00000+0 0  9995",
        "tle_line2": "2 38992   0.0695 338.6580 0003274 293.5302 136.2529  1.00268738 48023"
      },
      "geometry": {
        "type": "Point",
        "coordinates": [
          -163.91018189634022,
          -0.05338473023630541
        ]
      }
    },
    {
      "type": "Feature",
      "properties": {
        "norad_id": 39020,
        "name": "EUTELSAT 70B",
        "group": "eutelsat",
        "lat": -0.07941775301038866,
        "lon": -114.99520954860706,
        "alt_km": 35768.242671304084,
        "timestamp": "2025-12-20T05:41:49.689589+00:00",
        "meta_object_name": "EUTELSAT 70B",
        "meta_object_id": "2012-069A",
        "meta_epoch": "2025-12-19T19:47:55.032000",
        "meta_mean_motion": 1.00271396,
        "meta_eccentricity": 0.0004282,
        "meta_inclination": 0.0609,
        "meta_ra_of_asc_node": 3.0444,
        "meta_arg_of_pericenter": 250.121,
        "meta_mean_anomaly": 202.9727,
        "meta_ephemeris_type": 0,
        "meta_classification_type": "U",
        "meta_norad_cat_id": 39020,
        "meta_element_set_no": 999,
        "meta_rev_at_epoch": 4771,
        "meta_bstar": 0,
        "meta_mean_motion_dot": -1.9e-07,
        "meta_mean_motion_ddot": 0,
        "tle_line1": "1 39020U 12069A   25353.82494250 -.00000019  00000+0  00000+0 0  9993",
        "tle_line2": "2 39020   0.0609   3.0444 0004282 250.1210 202.9727  1.00271396 47710"
      },
      "geometry": {
        "type": "Point",
        "coordinates": [
          -114.99520954860706,
          -0.07941775301038866
        ]
      }
    },
    {
      "type": "Feature",
      "properties": {
        "norad_id": 39122,
        "name": "EUTELSAT 117 WEST A",
        "group": "eutelsat",
        "lat": 0.04595463406686774,
        "lon": 57.75864684121244,
        "alt_km": 35794.82627764883,
        "timestamp": "2025-12-20T05:41:49.689602+00:00",
        "meta_object_name": "EUTELSAT 117 WEST A",
        "meta_object_id": "2013-012A",
        "meta_epoch": "2025-12-19T12:21:38.812320",
        "meta_mean_motion": 1.00274631,
        "meta_eccentricity": 0.0002807,
        "meta_inclination": 0.032,
        "meta_ra_of_asc_node": 299.7491,
        "meta_arg_of_pericenter": 334.4616,
        "meta_mean_anomaly": 242.7738,
        "meta_ephemeris_type": 0,
        "meta_classification_type": "U",
        "meta_norad_cat_id": 39122,
        "meta_element_set_no": 999,
        "meta_rev_at_epoch": 4663,
        "meta_bstar": 0,
        "meta_mean_motion_dot": 1.1e-07,
        "meta_mean_motion_ddot": 0,
        "tle_line1": "1 39122U 13012A   25353.51503255  .00000011  00000+0  00000+0 0  9998",
        "tle_line2": "2 39122   0.0320 299.7491 0002807 334.4616 242.7738  1.00274631 46635"
      },
      "geometry": {
        "type": "Point",
        "coordinates": [
          57.75864684121244,
          0.04595463406686774
        ]
      }
    },
    {
      "type": "Feature",
      "properties": {
        "norad_id": 39163,
        "name": "EUTELSAT 7B",
        "group": "eutelsat",
        "lat": -0.008265061783931348,
        "lon": -178.51262881374552,
        "alt_km": 35800.2420238141,
        "timestamp": "2025-12-20T05:41:49.689614+00:00",
        "meta_object_name": "EUTELSAT 7B",
        "meta_object_id": "2013-022A",
        "meta_epoch": "2025-12-19T06:26:58.431840",
        "meta_mean_motion": 1.00270274,
        "meta_eccentricity": 0.0004283,
        "meta_inclination": 0.0652,
        "meta_ra_of_asc_node": 356.9078,
        "meta_arg_of_pericenter": 324.8571,
        "meta_mean_anomaly": 230.1004,
        "meta_ephemeris_type": 0,
        "meta_classification_type": "U",
        "meta_norad_cat_id": 39163,
        "meta_element_set_no": 999,
        "meta_rev_at_epoch": 4614,
        "meta_bstar": 0,
        "meta_mean_motion_dot": 7.3e-07,
        "meta_mean_motion_ddot": 0,
        "tle_line1": "1 39163U 13022A   25353.26873185  .00000073  00000+0  00000+0 0  9996",
        "tle_line2": "2 39163   0.0652 356.9078 0004283 324.8571 230.1004  1.00270274 46140"
      },
      "geometry": {
        "type": "Point",
        "coordinates": [
          -178.51262881374552,
          -0.008265061783931348
        ]
      }
    },
    {
      "type": "Feature",
      "properties": {
        "norad_id": 39612,
        "name": "EXPRESS-AT1",
        "group": "eutelsat",
        "lat": -0.03813407772607538,
        "lon": -129.49222068009672,
        "alt_km": 35787.9246873732,
        "timestamp": "2025-12-20T05:41:49.689627+00:00",
        "meta_object_name": "EXPRESS-AT1",
        "meta_object_id": "2014-010A",
        "meta_epoch": "2025-12-19T13:31:46.041312",
        "meta_mean_motion": 1.00270605,
        "meta_eccentricity": 4.94e-05,
        "meta_inclination": 0.022,
        "meta_ra_of_asc_node": 3.3546,
        "meta_arg_of_pericenter": 88.7338,
        "meta_mean_anomaly": 255.2488,
        "meta_ephemeris_type": 0,
        "meta_classification_type": "U",
        "meta_norad_cat_id": 39612,
        "meta_element_set_no": 999,
        "meta_rev_at_epoch": 4301,
        "meta_bstar": 0,
        "meta_mean_motion_dot": 0,
        "meta_mean_motion_ddot": 0,
        "tle_line1": "1 39612U 14010A   25353.56372733  .00000000  00000+0  00000+0 0  9999",
        "tle_line2": "2 39612   0.0220   3.3546 0000494  88.7338 255.2488  1.00270605 43015"
      },
      "geometry": {
        "type": "Point",
        "coordinates": [
          -129.49222068009672,
          -0.03813407772607538
        ]
      }
    },
    {
      "type": "Feature",
      "properties": {
        "norad_id": 39613,
        "name": "EXPRESS-AT2",
        "group": "eutelsat",
        "lat": -0.01184366150156422,
        "lon": -45.61740061676235,
        "alt_km": 35782.26394409745,
        "timestamp": "2025-12-20T05:41:49.689639+00:00",
        "meta_object_name": "EXPRESS-AT2",
        "meta_object_id": "2014-010B",
        "meta_epoch": "2025-12-19T15:17:38.440608",
        "meta_mean_motion": 1.00271653,
        "meta_eccentricity": 0.00010236,
        "meta_inclination": 0.0167,
        "meta_ra_of_asc_node": 316.7703,
        "meta_arg_of_pericenter": 332.8216,
        "meta_mean_anomaly": 168.1578,
        "meta_ephemeris_type": 0,
        "meta_classification_type": "U",
        "meta_norad_cat_id": 39613,
        "meta_element_set_no": 999,
        "meta_rev_at_epoch": 4270,
        "meta_bstar": 0,
        "meta_mean_motion_dot": -2.57e-06,
        "meta_mean_motion_ddot": 0,
        "tle_line1": "1 39613U 14010B   25353.63725047 -.00000257  00000+0  00000+0 0  9993",
        "tle_line2": "2 39613   0.0167 316.7703 0001023 332.8216 168.1578  1.00271653 42700"
      },
      "geometry": {
        "type": "Point",
        "coordinates": [
          -45.61740061676235,
          -0.01184366150156422
        ]
      }
    }
  ]
}